     3.03           N: GNSS NAV DATA    E: GALILEO          RINEX VERSION / TYPE
sbf2rin-13.0.1                          20181106 132002 UTC PGM / RUN BY / DATE 
GAL    3.1000E+01  1.5625E-02  9.9182E-03  0.0000E+00       IONOSPHERIC CORR    
GPGA  1.0186340660E-09-1.643130076E-14 345600 2018          TIME SYSTEM CORR    
GAUT  9.3132257462E-10 0.000000000E+00 259200 2018          TIME SYSTEM CORR    
    18                                                      LEAP SECONDS        
                                                            END OF HEADER       
E12 2018 09 12 12 00 00 5.036488466430E-03 8.431300102529E-11 0.000000000000E+00
     1.200000000000E+02 8.150000000000E+01 3.091557347201E-09 8.141409121912E-01
     3.971159458160E-06 1.940163783729E-04 9.329989552498E-06 5.440600521088E+03
     3.024000000000E+05 1.434236764908E-07 1.241732665961E+00-2.980232238770E-08
     9.800684088803E-01 1.467812500000E+02 3.019352538438E-01-5.643449358032E-09
     5.535944880039E-10 5.170000000000E+02 2.018000000000E+03
     3.120000000000E+00 0.000000000000E+00-1.583248376846E-08-1.606531441212E-08
     3.030660000000E+05
E07 2018 09 12 12 00 00-3.697077045217E-05-6.920686246303E-12 0.000000000000E+00
     1.200000000000E+02-3.503125000000E+01 2.905835325419E-09 2.260277349076E+00
    -1.542270183563E-06 3.283212427050E-04 1.409836113453E-05 5.440634256363E+03
     3.024000000000E+05-1.490116119385E-08-2.935241213515E+00-1.490116119385E-08
     9.532540406628E-01 3.612500000000E+01-8.972154714600E-01-5.425583140173E-09
    -4.053740283126E-10 5.170000000000E+02 2.018000000000E+03
     3.120000000000E+00 0.000000000000E+00 0.000000000000E+00-2.328306436539E-10
     3.030960000000E+05
E12 2018 09 12 12 00 00 5.036488815676E-03 8.431300102529E-11 0.000000000000E+00
     1.200000000000E+02 8.150000000000E+01 3.091557347201E-09 8.141409121912E-01
     3.971159458160E-06 1.940163783729E-04 9.329989552498E-06 5.440600521088E+03
     3.024000000000E+05 1.434236764908E-07 1.241732665961E+00-2.980232238770E-08
     9.800684088803E-01 1.467812500000E+02 3.019352538438E-01-5.643449358032E-09
     5.535944880039E-10 2.580000000000E+02 2.018000000000E+03
     3.120000000000E+00 0.000000000000E+00-1.583248376846E-08 0.000000000000E+00
     3.031400000000E+05
E07 2018 09 12 12 00 00-3.697077045217E-05-6.920686246303E-12 0.000000000000E+00
     1.200000000000E+02-3.503125000000E+01 2.905835325419E-09 2.260277349076E+00
    -1.542270183563E-06 3.283212427050E-04 1.409836113453E-05 5.440634256363E+03
     3.024000000000E+05-1.490116119385E-08-2.935241213515E+00-1.490116119385E-08
     9.532540406628E-01 3.612500000000E+01-8.972154714600E-01-5.425583140173E-09
    -4.053740283126E-10 2.580000000000E+02 2.018000000000E+03
     3.120000000000E+00 0.000000000000E+00 0.000000000000E+00 0.000000000000E+00
     3.031400000000E+05
E19 2018 09 12 12 00 00-1.231912756339E-05 2.842170943040E-13 0.000000000000E+00
     1.200000000000E+02-5.856250000000E+01 2.956908881409E-09 1.645902249864E+00
    -2.769753336906E-06 1.546192215756E-04 1.460686326027E-05 5.440622524261E+03
     3.024000000000E+05 1.303851604462E-07-2.939016809047E+00-2.607703208923E-08
     9.589820759213E-01 2.271875000000E+01-1.777475068457E+00-5.473085118821E-09
    -4.396611707954E-10 5.170000000000E+02 2.018000000000E+03
     3.120000000000E+00 0.000000000000E+00-8.381903171539E-09-9.313225746155E-09
     3.031560000000E+05
E19 2018 09 12 12 00 00-1.231854548678E-05 3.126388037344E-13 0.000000000000E+00
     1.200000000000E+02-5.856250000000E+01 2.956908881409E-09 1.645902249864E+00
    -2.769753336906E-06 1.546192215756E-04 1.460686326027E-05 5.440622524261E+03
     3.024000000000E+05 1.303851604462E-07-2.939016809047E+00-2.607703208923E-08
     9.589820759213E-01 2.271875000000E+01-1.777475068457E+00-5.473085118821E-09
    -4.396611707954E-10 2.580000000000E+02 2.018000000000E+03
     3.120000000000E+00 0.000000000000E+00-8.381903171539E-09 0.000000000000E+00
     3.031900000000E+05
E24 2018 09 12 12 00 00 6.497217866126E-03-2.015099198616E-11 0.000000000000E+00
     1.200000000000E+02-3.384375000000E+01 3.198347509726E-09 1.726596609233E+00
    -1.518055796623E-06 1.444395165890E-04 2.043321728706E-06 5.440599815369E+03
     3.024000000000E+05 7.450580596924E-09-8.397949011028E-01 4.842877388000E-08
     9.888037341131E-01 3.069687500000E+02 6.855359286717E-01-5.900245768919E-09
    -1.064330047904E-10 5.170000000000E+02 2.018000000000E+03
     3.120000000000E+00 0.000000000000E+00 4.237517714500E-08 4.749745130539E-08
     3.032160000000E+05
E24 2018 09 12 12 00 00 6.497212627437E-03-2.016520284087E-11 0.000000000000E+00
     1.200000000000E+02-3.384375000000E+01 3.198347509726E-09 1.726596609233E+00
    -1.518055796623E-06 1.444395165890E-04 2.043321728706E-06 5.440599815369E+03
     3.024000000000E+05 7.450580596924E-09-8.397949011028E-01 4.842877388000E-08
     9.888037341131E-01 3.069687500000E+02 6.855359286717E-01-5.900245768919E-09
    -1.064330047904E-10 2.580000000000E+02 2.018000000000E+03
     3.120000000000E+00 0.000000000000E+00 4.237517714500E-08 0.000000000000E+00
     3.032900000000E+05
E26 2018 09 12 12 00 00 5.486230191309E-03-4.339995030023E-11 0.000000000000E+00
     1.200000000000E+02 1.054062500000E+02 3.124058701013E-09-9.835947260970E-02
     4.833564162254E-06 2.268808893859E-04 9.601935744286E-06 5.440604833603E+03
     3.024000000000E+05 7.450580596924E-09 1.245674965397E+00 4.842877388000E-08
     9.763991104393E-01 1.400312500000E+02 2.778755716341E+00-5.623805682652E-09
     6.064538326650E-10 5.170000000000E+02 2.018000000000E+03
     3.120000000000E+00 0.000000000000E+00 6.984919309616E-10 6.984919309616E-10
     3.033360000000E+05
E26 2018 09 12 12 00 00 5.486230016686E-03-4.339995030023E-11 0.000000000000E+00
     1.200000000000E+02 1.054062500000E+02 3.124058701013E-09-9.835947260970E-02
     4.833564162254E-06 2.268808893859E-04 9.601935744286E-06 5.440604833603E+03
     3.024000000000E+05 7.450580596924E-09 1.245674965397E+00 4.842877388000E-08
     9.763991104393E-01 1.400312500000E+02 2.778755716341E+00-5.623805682652E-09
     6.064538326650E-10 2.580000000000E+02 2.018000000000E+03
     3.120000000000E+00 0.000000000000E+00 6.984919309616E-10 0.000000000000E+00
     3.033900000000E+05
E26 2018 09 12 12 10 00 5.486204172485E-03-4.339995030023E-11 0.000000000000E+00
     1.210000000000E+02 1.052500000000E+02 3.120487123671E-09-2.417247421772E-02
     4.826113581657E-06 2.270275726914E-04 9.551644325256E-06 5.440605140686E+03
     3.030000000000E+05 5.587935447693E-09 1.245671599222E+00 4.842877388000E-08
     9.763994630025E-01 1.412187500000E+02 2.778954494723E+00-5.626305786791E-09
     6.064538326650E-10 5.170000000000E+02 2.018000000000E+03
     3.120000000000E+00 0.000000000000E+00 6.984919309616E-10 6.984919309616E-10
     3.036660000000E+05
E24 2018 09 12 12 10 00 6.497205817141E-03-2.015099198616E-11 0.000000000000E+00
     1.210000000000E+02-3.368750000000E+01 3.195847405587E-09 1.801208228375E+00
    -1.499429345131E-06 1.444615190849E-04 2.069398760796E-06 5.440599737167E+03
     3.030000000000E+05 5.587935447693E-09-8.397984325870E-01 5.029141902924E-08
     9.888036624301E-01 3.067187500000E+02 6.853102633175E-01-5.901674399856E-09
    -1.067901625246E-10 5.170000000000E+02 2.018000000000E+03
     3.120000000000E+00 0.000000000000E+00 4.237517714500E-08 4.749745130539E-08
     3.036660000000E+05
E07 2018 09 12 12 10 00-3.697490319610E-05-6.920686246303E-12 0.000000000000E+00
     1.210000000000E+02-3.384375000000E+01 2.923336054395E-09 2.335186404333E+00
    -1.499429345131E-06 3.286617575213E-04 1.400336623192E-05 5.440633493423E+03
     3.030000000000E+05-1.117587089539E-08-2.935244434861E+00-2.235174179077E-08
     9.532538065959E-01 3.887500000000E+01-8.977403576893E-01-5.427011771109E-09
    -4.103742365913E-10 5.170000000000E+02 2.018000000000E+03
     3.120000000000E+00 0.000000000000E+00 0.000000000000E+00-2.328306436539E-10
     3.036660000000E+05
E19 2018 09 12 12 10 00-1.231901114807E-05 2.842170943040E-13 0.000000000000E+00
     1.210000000000E+02-5.793750000000E+01 2.995481916703E-09 1.719310083458E+00
    -2.732500433922E-06 1.545435516164E-04 1.454167068005E-05 5.440622863770E+03
     3.030000000000E+05 7.450580596924E-08-2.939020061114E+00-9.685754776001E-08
     9.589814088307E-01 2.387500000000E+01-1.776497972306E+00-5.541659403786E-09
    -4.221604418198E-10 5.170000000000E+02 2.018000000000E+03
     3.120000000000E+00 0.000000000000E+00-8.381903171539E-09-9.313225746155E-09
     3.036660000000E+05
E26 2018 09 12 12 10 00 5.486204056069E-03-4.339995030023E-11 0.000000000000E+00
     1.210000000000E+02 1.052500000000E+02 3.120487123671E-09-2.417247421772E-02
     4.826113581657E-06 2.270275726914E-04 9.551644325256E-06 5.440605140686E+03
     3.030000000000E+05 5.587935447693E-09 1.245671599222E+00 4.842877388000E-08
     9.763994630025E-01 1.412187500000E+02 2.778954494723E+00-5.626305786791E-09
     6.064538326650E-10 2.580000000000E+02 2.018000000000E+03
     3.120000000000E+00 0.000000000000E+00 6.984919309616E-10 0.000000000000E+00
     3.037400000000E+05
E07 2018 09 12 12 10 00-3.697484498844E-05-6.906475391588E-12 0.000000000000E+00
     1.210000000000E+02-3.384375000000E+01 2.923336054395E-09 2.335186404333E+00
    -1.499429345131E-06 3.286617575213E-04 1.400336623192E-05 5.440633493423E+03
     3.030000000000E+05-1.117587089539E-08-2.935244434861E+00-2.235174179077E-08
     9.532538065959E-01 3.887500000000E+01-8.977403576893E-01-5.427011771109E-09
    -4.103742365913E-10 2.580000000000E+02 2.018000000000E+03
     3.120000000000E+00 0.000000000000E+00 0.000000000000E+00 0.000000000000E+00
     3.037400000000E+05
